{"type":"FeatureCollection","name":"uganda_natural_earth_110m","features":[{"type":"Feature","properties":{"iso_a3":"UGA","name":"Uganda","source_dataset":"Natural Earth 1:110m Admin 0 - Countries","source_terms":"Public domain","source_url":"https://www.naturalearthdata.com/"},"geometry":{"type":"Polygon","coordinates":[[[33.903711197104528,-0.95],[31.86617,-1.02736],[30.769860000000108,-1.01455],[30.419104852019245,-1.134659112150416],[29.821518588996014,-1.443322442229785],[29.579466180140884,-1.341313164885626],[29.587837762172171,-0.587405694179381],[29.819503208136638,-0.205310153813372],[29.875778842902434,0.597379868976361],[30.086153598762706,1.062312730306289],[30.468507521290292,1.583805446779706],[30.852670118948058,1.849396470543809],[31.174149204235817,2.204465236821264],[30.773346795380039,2.339883327642127],[30.833859897593811,3.509165961110341],[30.833852421715427,3.509171604222463],[31.24556,3.7819],[31.88145,3.55827],[32.68642,3.79232],[33.3900000000001,3.79],[34.005,4.249884947362048],[34.47913,3.5556],[34.59607,3.053740000000118],[35.03599,1.90584],[34.6721,1.17694],[34.18,0.515],[33.893568969666944,0.109813537861896],[33.903711197104528,-0.95]]]}}]}
